start=new Date('2022-07-14T00:00:00.000Z').valueOf();
sats=[{"APOAPSIS":"328.832","REF_FRAME":"TEME","ARG_OF_PERICENTER":"55.2771","TIME_SYSTEM":"UTC","SITE":"AFETR","OBJECT_NAME":"STARLINK-4253","LAUNCH_DATE":"2022-07-07","ELEMENT_SET_NO":"999","GP_ID":"208044326","PERIOD":"90.844","TLE_LINE1":"1 53004U 22076U   22194.91667824 -.01039901  00000-0 -47405-2 0  9997","DECAY_DATE":null,"CLASSIFICATION_TYPE":"U","RCS_SIZE":null,"CENTER_NAME":"EARTH","RA_OF_ASC_NODE":"348.2804","MEAN_MOTION":"15.85127607","MEAN_MOTION_DDOT":"0.0000000000000","INCLINATION":"53.2173","FILE":"3513178","NORAD_CAT_ID":"53004","MEAN_MOTION_DOT":"-0.01039901","MEAN_ELEMENT_THEORY":"SGP4","TLE_LINE2":"2 53004  53.2173 348.2804 0019217  55.2771 114.3212 15.85127607  1491","EPHEMERIS_TYPE":"0","REV_AT_EPOCH":"149","OBJECT_ID":"2022-076U","BSTAR":"-0.00474050000000","EPOCH":"2022-07-13T22:00:00.999936","SEMIMAJOR_AXIS":"6694.102","OBJECT_TYPE":"PAYLOAD","MEAN_ANOMALY":"114.3212","COUNTRY_CODE":"US","ECCENTRICITY":"0.00192170","PERIAPSIS":"303.103"},{"REF_FRAME":"TEME","APOAPSIS":"328.479","CLASSIFICATION_TYPE":"U","TLE_LINE1":"1 53005U 22076V   22194.91667824 -.01040605  00000-0 -47280-2 0  9992","PERIOD":"90.840","DECAY_DATE":null,"GP_ID":"208044467","OBJECT_NAME":"STARLINK-4288","ELEMENT_SET_NO":"999","LAUNCH_DATE":"2022-07-07","SITE":"AFETR","TIME_SYSTEM":"UTC","ARG_OF_PERICENTER":"55.4375","INCLINATION":"53.2173","MEAN_MOTION":"15.85204781","MEAN_MOTION_DDOT":"0.0000000000000","RA_OF_ASC_NODE":"348.2779","CENTER_NAME":"EARTH","RCS_SIZE":null,"COUNTRY_CODE":"US","ECCENTRICITY":"0.00190160","PERIAPSIS":"303.021","MEAN_ANOMALY":"115.6891","OBJECT_TYPE":"PAYLOAD","BSTAR":"-0.00472800000000","SEMIMAJOR_AXIS":"6693.885","EPOCH":"2022-07-13T22:00:00.999936","MEAN_ELEMENT_THEORY":"SGP4","TLE_LINE2":"2 53005  53.2173 348.2779 0019016  55.4375 115.6891 15.85204781  1498","OBJECT_ID":"2022-076V","REV_AT_EPOCH":"149","EPHEMERIS_TYPE":"0","FILE":"3513178","NORAD_CAT_ID":"53005","MEAN_MOTION_DOT":"-0.01040605"},{"MEAN_MOTION":"15.85174113","MEAN_MOTION_DDOT":"0.0000000000000","INCLINATION":"53.2173","RA_OF_ASC_NODE":"348.2786","CENTER_NAME":"EARTH","RCS_SIZE":null,"COUNTRY_CODE":"US","ECCENTRICITY":"0.00188550","PERIAPSIS":"303.215","MEAN_ANOMALY":"115.2090","BSTAR":"-0.00473530000000","EPOCH":"2022-07-13T22:00:00.999936","SEMIMAJOR_AXIS":"6693.972","OBJECT_TYPE":"PAYLOAD","FILE":"3513178","NORAD_CAT_ID":"53006","MEAN_MOTION_DOT":"-0.01040342","MEAN_ELEMENT_THEORY":"SGP4","TLE_LINE2":"2 53006  53.2173 348.2786 0018855  55.3051 115.2090 15.85174113  1499","REV_AT_EPOCH":"149","EPHEMERIS_TYPE":"0","OBJECT_ID":"2022-076W","REF_FRAME":"TEME","APOAPSIS":"328.458","TLE_LINE1":"1 53006U 22076W   22194.91667824 -.01040342  00000-0 -47353-2 0  9992","DECAY_DATE":null,"PERIOD":"90.842","CLASSIFICATION_TYPE":"U","GP_ID":"208044465","OBJECT_NAME":"STARLINK-4290","ELEMENT_SET_NO":"999","LAUNCH_DATE":"2022-07-07","ARG_OF_PERICENTER":"55.3051","TIME_SYSTEM":"UTC","SITE":"AFETR"},{"CENTER_NAME":"EARTH","RCS_SIZE":null,"INCLINATION":"53.2173","MEAN_MOTION_DDOT":"0.0000000000000","MEAN_MOTION":"15.85250888","RA_OF_ASC_NODE":"348.2761","OBJECT_TYPE":"PAYLOAD","EPOCH":"2022-07-13T22:00:00.999936","SEMIMAJOR_AXIS":"6693.755","BSTAR":"-0.00470900000000","REV_AT_EPOCH":"149","EPHEMERIS_TYPE":"0","OBJECT_ID":"2022-076X","MEAN_ELEMENT_THEORY":"SGP4","TLE_LINE2":"2 53007  53.2173 348.2761 0020131  56.2548 115.7830 15.85250888  1495","FILE":"3513178","MEAN_MOTION_DOT":"-0.01041069","NORAD_CAT_ID":"53007","PERIAPSIS":"302.145","ECCENTRICITY":"0.00201310","COUNTRY_CODE":"US","MEAN_ANOMALY":"115.7830","APOAPSIS":"329.096","REF_FRAME":"TEME","ELEMENT_SET_NO":"999","LAUNCH_DATE":"2022-07-07","OBJECT_NAME":"STARLINK-4215","SITE":"AFETR","ARG_OF_PERICENTER":"56.2548","TIME_SYSTEM":"UTC","CLASSIFICATION_TYPE":"U","DECAY_DATE":null,"TLE_LINE1":"1 53007U 22076X   22194.91667824 -.01041069  00000-0 -47090-2 0  9998","PERIOD":"90.837","GP_ID":"208044320"},{"CENTER_NAME":"EARTH","RCS_SIZE":null,"RA_OF_ASC_NODE":"348.2768","INCLINATION":"53.2173","MEAN_MOTION":"15.85220520","MEAN_MOTION_DDOT":"0.0000000000000","TLE_LINE2":"2 53008  53.2173 348.2768 0018993  55.5656 115.8601 15.85220520  1305","MEAN_ELEMENT_THEORY":"SGP4","EPHEMERIS_TYPE":"0","REV_AT_EPOCH":"130","OBJECT_ID":"2022-076Y","FILE":"3513188","MEAN_MOTION_DOT":"-0.01040771","NORAD_CAT_ID":"53008","OBJECT_TYPE":"PAYLOAD","BSTAR":"-0.00472540000000","EPOCH":"2022-07-13T22:00:00.999936","SEMIMAJOR_AXIS":"6693.841","MEAN_ANOMALY":"115.8601","COUNTRY_CODE":"US","ECCENTRICITY":"0.00189930","PERIAPSIS":"302.992","APOAPSIS":"328.419","REF_FRAME":"TEME","SITE":"AFETR","TIME_SYSTEM":"UTC","ARG_OF_PERICENTER":"55.5656","OBJECT_NAME":"STARLINK-4275","ELEMENT_SET_NO":"999","LAUNCH_DATE":"2022-07-07","GP_ID":"208069271","CLASSIFICATION_TYPE":"U","PERIOD":"90.839","TLE_LINE1":"1 53008U 22076Y   22194.91667824 -.01040771  00000-0 -47254-2 0  9990","DECAY_DATE":null},{"RCS_SIZE":null,"CENTER_NAME":"EARTH","RA_OF_ASC_NODE":"348.2741","MEAN_MOTION":"15.85298146","MEAN_MOTION_DDOT":"0.0000000000000","INCLINATION":"53.2173","NORAD_CAT_ID":"53009","FILE":"3513178","MEAN_MOTION_DOT":"-0.01041700","MEAN_ELEMENT_THEORY":"SGP4","TLE_LINE2":"2 53009  53.2173 348.2741 0020592  56.1704 116.7580 15.85298146  1491","REV_AT_EPOCH":"149","OBJECT_ID":"2022-076Z","EPHEMERIS_TYPE":"0","BSTAR":"-0.00469670000000","SEMIMAJOR_AXIS":"6693.622","EPOCH":"2022-07-13T22:00:00.999936","OBJECT_TYPE":"PAYLOAD","MEAN_ANOMALY":"116.7580","ECCENTRICITY":"0.00205920","COUNTRY_CODE":"US","PERIAPSIS":"301.704","APOAPSIS":"329.271","REF_FRAME":"TEME","TIME_SYSTEM":"UTC","ARG_OF_PERICENTER":"56.1704","SITE":"AFETR","OBJECT_NAME":"STARLINK-4277","LAUNCH_DATE":"2022-07-07","ELEMENT_SET_NO":"999","GP_ID":"208044331","DECAY_DATE":null,"TLE_LINE1":"1 53009U 22076Z   22194.91667824 -.01041700  00000-0 -46967-2 0  9994","PERIOD":"90.835","CLASSIFICATION_TYPE":"U"},{"OBJECT_TYPE":"PAYLOAD","SEMIMAJOR_AXIS":"6693.797","EPOCH":"2022-07-13T22:00:00.999936","BSTAR":"-0.00472490000000","REV_AT_EPOCH":"149","EPHEMERIS_TYPE":"0","OBJECT_ID":"2022-076AA","TLE_LINE2":"2 53010  53.2173 348.2763 0018780  55.0473 116.6797 15.85236190  1494","MEAN_ELEMENT_THEORY":"SGP4","NORAD_CAT_ID":"53010","FILE":"3513178","MEAN_MOTION_DOT":"-0.01041001","PERIAPSIS":"303.091","COUNTRY_CODE":"US","ECCENTRICITY":"0.00187800","MEAN_ANOMALY":"116.6797","RCS_SIZE":null,"CENTER_NAME":"EARTH","INCLINATION":"53.2173","MEAN_MOTION_DDOT":"0.0000000000000","MEAN_MOTION":"15.85236190","RA_OF_ASC_NODE":"348.2763","LAUNCH_DATE":"2022-07-07","ELEMENT_SET_NO":"999","OBJECT_NAME":"STARLINK-4263","SITE":"AFETR","TIME_SYSTEM":"UTC","ARG_OF_PERICENTER":"55.0473","CLASSIFICATION_TYPE":"U","TLE_LINE1":"1 53010U 22076AA  22194.91667824 -.01041001  00000-0 -47249-2 0  9994","DECAY_DATE":null,"PERIOD":"90.838","GP_ID":"208044332","APOAPSIS":"328.233","REF_FRAME":"TEME"},{"MEAN_ANOMALY":"117.4040","COUNTRY_CODE":"US","ECCENTRICITY":"0.00200780","PERIAPSIS":"302.006","MEAN_MOTION_DOT":"-0.01041829","FILE":"3513181","NORAD_CAT_ID":"53011","MEAN_ELEMENT_THEORY":"SGP4","TLE_LINE2":"2 53011  53.2173 348.2737 0020078  55.8355 117.4040 15.85313228  1494","REV_AT_EPOCH":"149","OBJECT_ID":"2022-076AB","EPHEMERIS_TYPE":"0","BSTAR":"-0.00469890000000","SEMIMAJOR_AXIS":"6693.580","EPOCH":"2022-07-13T22:00:00.999936","OBJECT_TYPE":"PAYLOAD","RA_OF_ASC_NODE":"348.2737","MEAN_MOTION":"15.85313228","MEAN_MOTION_DDOT":"0.0000000000000","INCLINATION":"53.2173","RCS_SIZE":null,"CENTER_NAME":"EARTH","GP_ID":"208044357","TLE_LINE1":"1 53011U 22076AB  22194.91667824 -.01041829  00000-0 -46989-2 0  9993","PERIOD":"90.834","DECAY_DATE":null,"CLASSIFICATION_TYPE":"U","TIME_SYSTEM":"UTC","ARG_OF_PERICENTER":"55.8355","SITE":"AFETR","OBJECT_NAME":"STARLINK-4265","LAUNCH_DATE":"2022-07-07","ELEMENT_SET_NO":"999","REF_FRAME":"TEME","APOAPSIS":"328.884"},{"APOAPSIS":"329.105","REF_FRAME":"TEME","SITE":"AFETR","ARG_OF_PERICENTER":"56.1850","TIME_SYSTEM":"UTC","OBJECT_NAME":"STARLINK-4271","LAUNCH_DATE":"2022-07-07","ELEMENT_SET_NO":"999","GP_ID":"208044319","CLASSIFICATION_TYPE":"U","PERIOD":"90.836","TLE_LINE1":"1 53012U 22076AC  22194.91667824 -.01041292  00000-0 -47058-2 0  9996","DECAY_DATE":null,"RCS_SIZE":null,"CENTER_NAME":"EARTH","RA_OF_ASC_NODE":"348.2751","INCLINATION":"53.2173","MEAN_MOTION":"15.85266213","MEAN_MOTION_DDOT":"0.0000000000000","MEAN_ELEMENT_THEORY":"SGP4","TLE_LINE2":"2 53012  53.2173 348.2751 0020210  56.1850 116.1588 15.85266213  1497","EPHEMERIS_TYPE":"0","REV_AT_EPOCH":"149","OBJECT_ID":"2022-076AC","FILE":"3513178","MEAN_MOTION_DOT":"-0.01041292","NORAD_CAT_ID":"53012","OBJECT_TYPE":"PAYLOAD","BSTAR":"-0.00470580000000","SEMIMAJOR_AXIS":"6693.712","EPOCH":"2022-07-13T22:00:00.999936","MEAN_ANOMALY":"116.1588","ECCENTRICITY":"0.00202100","COUNTRY_CODE":"US","PERIAPSIS":"302.049"},{"APOAPSIS":"328.413","REF_FRAME":"TEME","LAUNCH_DATE":"2022-07-07","ELEMENT_SET_NO":"999","OBJECT_NAME":"STARLINK-4177","TIME_SYSTEM":"UTC","ARG_OF_PERICENTER":"56.0062","SITE":"AFETR","TLE_LINE1":"1 53013U 22076AD  22194.91667824 -.01042213  00000-0 -46952-2 0  9993","DECAY_DATE":null,"PERIOD":"90.831","CLASSIFICATION_TYPE":"U","GP_ID":"208069430","RCS_SIZE":null,"CENTER_NAME":"EARTH","MEAN_MOTION_DDOT":"0.0000000000000","MEAN_MOTION":"15.85358830","INCLINATION":"53.2173","RA_OF_ASC_NODE":"348.2719","SEMIMAJOR_AXIS":"6693.452","EPOCH":"2022-07-13T22:00:00.999936","BSTAR":"-0.00469520000000","OBJECT_TYPE":"PAYLOAD","NORAD_CAT_ID":"53013","FILE":"3513188","MEAN_MOTION_DOT":"-0.01042213","REV_AT_EPOCH":"130","EPHEMERIS_TYPE":"0","OBJECT_ID":"2022-076AD","TLE_LINE2":"2 53013  53.2173 348.2719 0019566  56.0062 118.1526 15.85358830  1309","MEAN_ELEMENT_THEORY":"SGP4","PERIAPSIS":"302.220","COUNTRY_CODE":"US","ECCENTRICITY":"0.00195660","MEAN_ANOMALY":"118.1526"}];
